METEOR-M2 2             
1 44387U 19038A   23026.21426675  .00000109  00000+0  67329-4 0  9993
2 44387  98.7548 350.5580 0001700  30.1658 329.9622 14.23744464185103
